STARLINK-5131           
1 53996U 22125AJ  26068.68200559 -.00001129  00000+0 -52875-4 0  9996
2 53996  53.2168 213.9943 0001224  84.8018 275.3113 15.08840974189464
DISKSAT D               
1 67221U 25305C   26068.55257179  .00011599  00000+0  76841-3 0  9999
2 67221  45.0023 251.6339 0003712 319.2749  40.7848 15.07416577 12277
